0 SL-12 R/B(2)
1 13954U 82113F   13282.13750696 -.00000098  00000-0  10000-3 0  4133
2 13954 015.6152 353.9350 0024868 155.6613 204.4685 00.97571194 74684
0 SL-12 R/B(2)
1 13954U 82113F   13283.16235922  .00000000  00000-0  10000-3 0  4140
2 13954 015.6156 353.9249 0024975 157.0830 203.0435 00.97566855 74698
0 SL-12 R/B(2)
1 13954U 82113F   13288.28662850 -.00000096  00000-0  10000-3 0  4148
2 13954 015.6158 353.8736 0024797 155.8065 204.2719 00.97569993 74748
0 SL-12 R/B(2)
1 13954U 82113F   13289.31155741 -.00000113  00000-0  10000-3 0  4150
2 13954 015.6157 353.8639 0024423 156.3799 203.7274 00.97570642 74759
0 SL-12 R/B(2)
1 13954U 82113F   13293.41093906 -.00000188  00000-0  10000-3 0  4163
2 13954 015.6157 353.8235 0024398 156.5797 203.5224 00.97572259 74795
0 SL-12 R/B(2)
1 13954U 82113F   13293.41094039 -.00000188  00000-0  10000-3 0  4172
2 13954 015.6158 353.8245 0025418 156.9277 203.1780 00.97572167 74799
0 SL-12 R/B(2)
1 13954U 82113F   13295.46061917 -.00000197  00000-0  10000-3 0  4189
2 13954 015.6158 353.8037 0024794 157.1591 202.9449 00.97572452 74815
